{
  "norad_id": 45706,
  "name": "STARLINK-1411",
  "history": [
    {
      "epoch": "2026-03-28T19:10:36.263712",
      "apogee_km": 371.98925356745985,
      "perigee_km": 367.8568765448199,
      "latitude_deg": 17.56045414650522,
      "longitude_deg": -92.69304031995125,
      "semi_major_axis_km": 6748.060065056139,
      "eccentricity": 0.00030619,
      "inclination_deg": 53.0403,
      "raan_deg": 247.769,
      "arg_perigee_deg": 244.7431,
      "mean_anomaly_deg": 115.3267,
      "mean_motion_rev_day": 15.66153598
    }
  ]
}