{"fetched_at":"2026-03-30T20:46:33Z","count":15425,"tles":[{"name":"STARLINK-1411","line1":"1 45706U 20035BB  26087.79903083  .00131972  00000+0  12445-2 0  9994","line2":"2 45706  53.0403 247.7690 0003061 244.7431 115.3267 15.66153598322910","category":"Starlink"}]}